0 DELTA 1 DEB
1 21380U 75052DA  13282.69574363 -.00000086  00000-0 -56804-4 0   514
2 21380 099.5581 002.1797 0055650 112.0482 018.4388 13.59546677108710
0 DELTA 1 DEB
1 21380U 75052DA  13286.51013090 -.00000046  00000-0 -43976-5 0   539
2 21380 099.5583 005.8998 0055322 102.5374 327.3012 13.59546683109236
0 DELTA 1 DEB
1 21380U 75052DA  13287.70000374 -.00000029  00000-0  18116-4 0   540
2 21380 099.5582 007.0604 0055306 099.5537 030.9458 13.59546752109396
0 DELTA 1 DEB
1 21380U 75052DA  13288.72940181 -.00000028  00000-0  20146-4 0   558
2 21380 099.5580 008.0644 0055303 096.9627 029.1811 13.59546840109534
0 DELTA 1 DEB
1 21380U 75052DA  13290.18867041  .00000014  00000-0  75745-4 0   564
2 21380 099.5577 009.4876 0055170 093.2971 331.3488 13.59547292109738
0 DELTA 1 DEB
1 21380U 75052DA  13291.21794598  .00000015  00000-0  77474-4 0   578
2 21380 099.5575 010.4914 0055159 090.7354 328.9583 13.59547604109875
0 DELTA 1 DEB
1 21380U 75052DA  13292.47009557  .00000032  00000-0  10039-3 0   584
2 21380 099.5573 011.7126 0055089 087.5834 337.4233 13.59547974110049
0 DELTA 1 DEB
1 21380U 75052DA  13293.50113669  .00000041  00000-0  11293-3 0   593
2 21380 099.5572 012.7180 0055022 084.9747 343.7181 13.59548232110185
0 DELTA 1 DEB
1 21380U 75052DA  13294.69587770  .00000043  00000-0  11444-3 0   604
2 21380 099.5571 013.8831 0054964 081.9617 071.2124 13.59548766110346
0 DELTA 1 DEB
1 21380U 75052DA  13295.72065581  .00000054  00000-0  13014-3 0   618
2 21380 099.5569 014.8821 0054927 079.3626 046.8625 13.59549061110481
